{
    "links": {
        "self": "http://www.neowsapp.com/rest/v1/neo/3511912?api_key=iIulBulltgU6a56xZRHN4H3l9WmuAYTsLGpBGhQ2"
    },
    "id": "3511912",
    "neo_reference_id": "3511912",
    "name": "(2010 EZ45)",
    "designation": "2010 EZ45",
    "nasa_jpl_url": "http://ssd.jpl.nasa.gov/sbdb.cgi?sstr=3511912",
    "absolute_magnitude_h": 22.6,
    "estimated_diameter": {
        "kilometers": {
            "estimated_diameter_min": 0.0802703167,
            "estimated_diameter_max": 0.1794898848
        },
        "meters": {
            "estimated_diameter_min": 80.2703167283,
            "estimated_diameter_max": 179.4898847799
        },
        "miles": {
            "estimated_diameter_min": 0.049877647,
            "estimated_diameter_max": 0.1115298092
        },
        "feet": {
            "estimated_diameter_min": 263.3540659348,
            "estimated_diameter_max": 588.8775935812
        }
    },
    "is_potentially_hazardous_asteroid": false,
    "close_approach_data": [
        {
            "close_approach_date": "1923-03-27",
            "close_approach_date_full": "1923-Mar-27 02:25",
            "epoch_date_close_approach": -1475876100000,
            "relative_velocity": {
                "kilometers_per_second": "5.5784003255",
                "kilometers_per_hour": "20082.2411718917",
                "miles_per_hour": "12478.3236881679"
            },
            "miss_distance": {
                "astronomical": "0.1458489323",
                "lunar": "56.7352346647",
                "kilometers": "21818689.613854201",
                "miles": "13557505.0561859338"
            },
            "orbiting_body": "Earth"
        },
        {
            "close_approach_date": "1940-03-26",
            "close_approach_date_full": "1940-Mar-26 08:54",
            "epoch_date_close_approach": -939395160000,
            "relative_velocity": {
                "kilometers_per_second": "7.1682219566",
                "kilometers_per_hour": "25805.5990436214",
                "miles_per_hour": "16034.5956946324"
            },
            "miss_distance": {
                "astronomical": "0.2367495717",
                "lunar": "92.0955833913",
                "kilometers": "35417231.649732279",
                "miles": "22007247.2575282902"
            },
            "orbiting_body": "Earth"
        },
        {
            "close_approach_date": "1957-03-23",
            "close_approach_date_full": "1957-Mar-23 01:36",
            "epoch_date_close_approach": -403223040000,
            "relative_velocity": {
                "kilometers_per_second": "9.2571130715",
                "kilometers_per_hour": "33325.6070574352",
                "miles_per_hour": "20707.2362296602"
            },
            "miss_distance": {
                "astronomical": "0.368674518",
                "lunar": "143.414387502",
                "kilometers": "55152922.61607666",
                "miles": "34270436.972351508"
            },
            "orbiting_body": "Earth"
        },
        {
            "close_approach_date": "1993-03-28",
            "close_approach_date_full": "1993-Mar-28 12:21",
            "epoch_date_close_approach": 733321260000,
            "relative_velocity": {
                "kilometers_per_second": "5.0571249734",
                "kilometers_per_hour": "18205.6499042264",
                "miles_per_hour": "11312.28285299"
            },
            "miss_distance": {
                "astronomical": "0.1438885802",
                "lunar": "55.9726576978",
                "kilometers": "21525425.115244174",
                "miles": "13375278.9466866412"
            },
            "orbiting_body": "Earth"
        },
        {
            "close_approach_date": "2010-03-28",
            "close_approach_date_full": "2010-Mar-28 02:39",
            "epoch_date_close_approach": 1269743940000,
            "relative_velocity": {
                "kilometers_per_second": "4.9226603137",
                "kilometers_per_hour": "17721.5771291596",
                "miles_per_hour": "11011.4988556159"
            },
            "miss_distance": {
                "astronomical": "0.1186850986",
                "lunar": "46.1685033554",
                "kilometers": "17755037.951299982",
                "miles": "11032469.0005524716"
            },
            "orbiting_body": "Earth"
        }
    ],
    "orbital_data": {
        "orbit_id": "17",
        "orbit_determination_date": "2017-04-06 08:58:09",
        "first_observation_date": "2010-03-15",
        "last_observation_date": "2010-04-17",
        "data_arc_in_days": 33,
        "observations_used": 97,
        "orbit_uncertainty": "6",
        "minimum_orbit_intersection": ".113305",
        "jupiter_tisserand_invariant": "4.436",
        "epoch_osculation": "2459000.5",
        "eccentricity": ".2750312645028758",
        "semi_major_axis": "1.528293847880483",
        "inclination": "8.362428534195628",
        "ascending_node_longitude": "12.10781711935157",
        "orbital_period": "690.0947511404546",
        "perihelion_distance": "1.107965258365948",
        "perihelion_argument": "166.1653180244658",
        "aphelion_distance": "1.948622437395018",
        "perihelion_time": "2458723.187301071680",
        "mean_anomaly": "144.6650209253313",
        "mean_motion": ".5216674947969998",
        "equinox": "J2000",
        "orbit_class": {
            "orbit_class_type": "AMO",
            "orbit_class_description": "Near-Earth asteroid orbits similar to that of 1221 Amor",
            "orbit_class_range": "1.017 AU < q (perihelion) < 1.3 AU"
        }
    },
    "is_sentry_object": false
}